PROXIMA II              
1 43696U 18088G   22102.41899060  .00009869  00000+0  38899-3 0  9998
2 43696  85.0348 357.0088 0017814   6.7803 353.3678 15.25285297189890
FACSAT-1                
1 43721U 18096C   22102.60139477  .00020239  00000+0  62506-3 0  9992
2 43721  97.3542 182.6131 0013418 287.6728 180.1375 15.33486988187879
CENTAURI-2              
1 43722U 18096D   22102.18082900  .00027119  00000+0  77516-3 0  9995
2 43722  97.3582 183.8390 0013196 285.8081  74.1707 15.35873705187891
INNOSAT-2               
1 43738U 18096V   22102.53091139  .00046785  00000+0  10640-2 0  9999
2 43738  97.3666 190.3161 0015800 275.9547 180.4949 15.42715921188322
SIRION PATHFINDER-2     
1 43759U 18099B   22102.49989462  .00001801  00000+0  16493-3 0  9998
2 43759  97.6258 170.9882 0015263 120.0131 240.2607 14.96075526183184
CORVUS BC4              
1 43767U 18099K   22102.49446595  .00001664  00000+0  15520-3 0  9999
2 43767  97.6220 169.5853 0012774 124.6508 235.5919 14.95475998183118
MOVE-II                 
1 43780U 18099Y   22102.46188402  .00005492  00000+0  48010-3 0  9994
2 43780  97.6291 171.4993 0014639 130.3346 229.9157 14.97083937183182
SPACEBEE-7              
1 43816U 18099BL  22102.44687988  .00004187  00000+0  36716-3 0  9995
2 43816  97.6306 172.2029 0014114 115.7798 244.4882 14.97097071182779
SPACEBEE-5              
1 43817U 18099BM  22102.44653554  .00011354  00000+0  92102-3 0  9993
2 43817  97.6426 174.6562 0011939 116.6000 243.6448 14.99766742182879
SPACEBEE-6              
1 43818U 18099BN  22102.44319243  .00006036  00000+0  51657-3 0  9999
2 43818  97.6347 172.9407 0013742 114.5018 245.7639 14.97879167182959
SHIELDS 1               
1 43850U 18104B   22102.48576160  .00004418  00000+0  18583-3 0  9992
2 43850  85.0246  95.9733 0015952 140.7324 219.5079 15.22979864184465
STF-1                   
1 43852U 18104D   22102.49746884  .00012429  00000+0  49267-3 0  9991
2 43852  85.0276  96.4383 0014796 150.9313 209.2757 15.25161080184480
ZACUBE-2                
1 43907U 18111AH  22102.47201565  .00005680  00000+0  21839-3 0  9996
2 43907  97.1990 351.1322 0019028 318.0511 166.8409 15.26624915183227
LUME 1                  
1 43908U 18111AJ  22102.17995600  .00011457  00000+0  40791-3 0  9991
2 43908  97.2006 352.1038 0017576 314.4712  45.5091 15.28956692183267
AOBA VELOX-IV           
1 43940U 19003J   22102.33814293  .00028500  00000+0  87861-3 0  9990
2 43940  97.1374 140.2988 0019632  28.9167 331.3159 15.33368203179982
MOVE-IIB                
1 44398U 19038N   22102.62811205  .00016175  00000+0  81845-3 0  9999
2 44398  97.6226  71.4829 0022520   2.0673 358.0636 15.16881233153055
SONATE                  
1 44400U 19038Q   22102.57647457  .00006827  00000+0  37796-3 0  9992
2 44400  97.6310  70.8455 0024066   4.7719 355.3737 15.13916172152967
LUCKY-7                 
1 44406U 19038W   22102.41302738  .00007839  00000+0  42454-3 0  9992
2 44406  97.6320  71.1124 0023178   4.0653 356.0762 15.14667729152962
BEESAT 9                
1 44412U 19038AC  22102.45882455  .00012044  00000+0  63331-3 0  9993
2 44412  97.6295  71.3466 0021004   8.9646 351.1957 15.15628008152692
JAISAT-1                
1 44419U 19038F   22102.46526590  .00011974  00000+0  62152-3 0  9997
2 44419  97.6299  72.1387 0019884   6.6260 353.5231 15.16107308153052
DUCHIFAT-3              
1 44854U 19089C   22102.44245154  .00004190  00000+0  33193-3 0  9993
2 44854  36.9658 131.5307 0007167  38.5217 321.6040 15.00534009128016
EYESAT-NANO             
1 44877U 19092E   22102.49459332  .00012973  00000+0  58850-3 0  9997
2 44877  97.4645 287.3979 0011487 222.6452 137.3893 15.20891247128336
ORBITAL FACTORY 2 (OF-2)
1 45113U 19071C   22102.14357891  .00026308  00000+0  61567-3 0  9993
2 45113  51.6404  24.7953 0008284 293.7878  66.2238 15.41912597123133
M2 PATHFINDER           
1 45727U 20037E   22102.49064445  .00001652  00000+0  16914-3 0  9997
2 45727  97.7302 279.1802 0011595 253.9366 106.0601 14.91801545 96994
NETSAT-4                
1 46504U 20068U   22102.60908035  .00003133  00000+0  23731-3 0  9991
2 46504  97.7186  42.5699 0011475 176.9148 183.2088 15.02976962 84153
NETSAT-3                
1 46505U 20068V   22102.62266524  .00003674  00000+0  27765-3 0  9995
2 46505  97.7176  42.5140 0011200 186.6161 173.4915 15.02950679 84161
NETSAT-1                
1 46506U 20068W   22102.57036039  .00004244  00000+0  32047-3 0  9999
2 46506  97.7152  42.3993 0009313 201.8372 158.2443 15.02907180 84151
NETSAT-2                
1 46507U 20068X   22102.57857633  .00004582  00000+0  34607-3 0  9990
2 46507  97.7143  42.4020 0008320 210.0919 149.9818 15.02868693 84103
SPOC                    
1 46921U 98067RR  22101.88141990  .00110263  00000+0  75276-3 0  9990
2 46921  51.6340 274.8278 0003340 254.5946 105.4684 15.73978041 81457
BOBCAT-1                
1 46922U 98067RS  22098.90122068  .11905367  12464-4  72310-3 0  9991
2 46922  51.6240 272.7697 0008754 281.6685  78.3359 16.41269594 81172
NEUTRON-1               
1 46923U 98067RT  22101.22220746  .00130544  00000+0  89957-3 0  9992
2 46923  51.6346 278.6875 0003556 249.6904 110.3713 15.73683711 81363
DESCENT                 
1 46927U 98067RX  22102.02371574  .00119956  00000+0  78593-3 0  9999
2 46927  51.6335 274.2820 0004444 253.9841 106.0669 15.74887572 81412
SAI-1 NANOCONNECT-2     
1 47701U 21015C   22089.17476740 -.00000073  00000+0  00000+0 0  9994
2 47701  97.4113 166.5771 0015583   2.4776 357.8237 15.25181835 60120
WARP-01                 
1 47924U 98067SA  22102.20763922  .00377241  00000+0  13272-2 0  9994
2 47924  51.6274 276.9120 0007691 268.3058  91.7065 15.87586239 61442
RSP-01                  
1 47925U 98067SB  22102.48857718  .00175776  00000+0  12017-2 0  9997
2 47925  51.6354 281.1497 0003982 265.2024  94.8521 15.73712686 61392
TAUSAT-1                
1 47926U 98067SC  22100.98578780  .00306404  00000+0  12073-2 0  9996
2 47926  51.6267 282.2802 0007004 269.9858  90.0343 15.85442601 61236
TSURU                   
1 47927U 98067SD  22102.53727058  .00140068  00000+0  11192-2 0  9997
2 47927  51.6351 282.9710 0002813 259.8337 100.2344 15.70146429 61372
STARS-EC                
1 47928U 98067SE  22102.54410155  .01265439  93321-3  17877-2 0  9995
2 47928  51.6253 272.3824 0012111 287.9031  72.0660 16.05092613 61492
MAYA-2                  
1 47929U 98067SF  22102.21716561  .00111057  00000+0  89841-3 0  9994
2 47929  51.6349 284.5827 0002663 258.7878 101.2820 15.69960559 61285
HIROGARI (OPUSAT-II)    
1 47930U 98067SG  22101.93332534  .01658280  19886-2  18645-2 0  9991
2 47930  51.6209 273.5339 0012471 290.1866  69.7806 16.08964045 61441
GUARANISAT-1            
1 47931U 98067SH  22102.20622728  .00111167  00000+0  89233-3 0  9994
2 47931  51.6362 284.5271 0002714 259.0413 101.0279 15.70147248 61327
SMOG-1                  
1 47964U 21022AJ  22102.28570343  .00009046  00000+0  57372-3 0  9991
2 47964  97.5359   4.0742 0019117   8.6966 351.4590 15.08986421 56902
MMSATS-1                
1 47976U 98067SJ  22102.55702795  .00025282  00000+0  36521-3 0  9998
2 47976  51.6434 295.0835 0002747 137.2029 222.9003 15.55781218 59997
BCCSAT-1                
1 48041U 21022AK  22102.50184264  .00007355  00000+0  47732-3 0  9996
2 48041  97.5372   3.9835 0015583   7.9380 352.2092 15.08258518 56893
RAMSAT                  
1 48850U 98067SL  22102.22781600  .00059167  00000+0  67927-3 0  9999
2 48850  51.6387 293.6448 0004479 195.7436 164.3420 15.61466312 46951
BD-28                   
1 48867U 98067SN  22102.51559901  .00083413  00000+0  89350-3 0  9991
2 48867  51.6358 291.0473 0004486 225.9727 134.0898 15.63107301 45767
MIR-SAT 1               
1 48868U 98067SP  22102.20343105  .00997391  49121-3  19611-2 0  9997
2 48868  51.6232 280.5993 0012059 280.1555  79.8094 15.99404247 45904
1998-067SR              
1 49272U 98067SR  22102.02254178  .00056463  00000+0  67756-3 0  9997
2 49272  51.6384 298.2533 0001782  98.5491 261.5705 15.60341065 29265
1998-067SS              
1 49273U 98067SS  22102.54895216  .00113579  00000+0  11891-2 0  9999
2 49273  51.6372 294.2703 0000568 151.8114 208.2911 15.63561681 29363
1998-067ST              
1 49274U 98067ST  22102.23887468  .00090262  00000+0  95757-3 0  9993
2 49274  51.6370 295.9476 0000555 145.6320 214.4711 15.63329043 29319
CUAVA-1                 
1 49275U 98067SU  22102.53039911  .00070543  00000+0  78994-3 0  9993
2 49275  51.6411 294.7904 0001334 115.3310 290.9506 15.62046533 29307
